CCSDS_OMM_VERS,COMMENT,CREATION_DATE,ORIGINATOR,OBJECT_NAME,OBJECT_ID,CENTER_NAME,REF_FRAME,TIME_SYSTEM,MEAN_ELEMENT_THEORY,EPOCH,MEAN_MOTION,ECCENTRICITY,INCLINATION,RA_OF_ASC_NODE,ARG_OF_PERICENTER,MEAN_ANOMALY,EPHEMERIS_TYPE,CLASSIFICATION_TYPE,NORAD_CAT_ID,ELEMENT_SET_NO,REV_AT_EPOCH,BSTAR,MEAN_MOTION_DOT,MEAN_MOTION_DDOT,SEMIMAJOR_AXIS,PERIOD,APOAPSIS,PERIAPSIS,OBJECT_TYPE,RCS_SIZE,COUNTRY_CODE,LAUNCH_DATE,SITE,DECAY_DATE,FILE,GP_ID,TLE_LINE0,TLE_LINE1,TLE_LINE2
"3.0","GENERATED VIA SPACE-TRACK.ORG API","2025-05-02T21:36:47","18 SPCS","STARLINK-31617","2024-068A","EARTH","TEME","UTC","SGP4","2025-05-02T20:05:18.570336","16.36077508","0.00175280","42.9755","330.3582","275.3850","205.6345","0","U","59455","999","6121","0.00486170000000","0.46473053","0.0000092436000","6554.395","88.015","187.748","164.771","PAYLOAD","LARGE","US","2024-04-10","AFETR","2025-05-02","4717012","286693380","0 STARLINK-31617","1 59455U 24068A   25122.83702049  .46473053  92436-5  48617-2 0  9992","2 59455  42.9755 330.3582 0017528 275.3850 205.6345 16.36077508 61217"
"3.0","GENERATED VIA SPACE-TRACK.ORG API","2025-05-04T17:21:58","18 SPCS","OBJECT N","2024-039N","EARTH","TEME","UTC","SGP4","2025-05-03T04:43:38.335872","16.47867169","0.00107020","97.3867","99.9366","236.9191","123.1086","0","U","59063","999","6616","0.00023866000000","0.15262011","0.0000026408000","6523.095","87.386","151.941","137.979","UNKNOWN","SMALL","TBD","2024-02-29","VOSTO","2025-05-06","4719080","286857933","0 OBJECT N","1 59063U 24039N   25123.19697148  .15262011  26408-5  23866-3 0  9990","2 59063  97.3867  99.9366 0010702 236.9191 123.1086 16.47867169 66163"
"3.0","GENERATED VIA SPACE-TRACK.ORG API","2025-05-03T23:16:33","18 SPCS","FLOCK 4Y 8","2023-001BQ","EARTH","TEME","UTC","SGP4","2025-05-03T05:57:57.392352","16.34077416","0.00137580","97.3416","198.8694","262.1080","97.8655","0","U","55071","999","13030","0.00168730000000","0.11228224","0.0000024812000","6559.742","88.123","190.632","172.582","PAYLOAD","SMALL","US","2023-01-03","AFETR","2025-05-06","4718287","286783082","0 FLOCK 4Y 8","1 55071U 23001BQ  25123.24858093  .11228224  24812-5  16873-2 0  9997","2 55071  97.3416 198.8694 0013758 262.1080  97.8655 16.34077416130304"
"3.0","GENERATED VIA SPACE-TRACK.ORG API","2026-06-23T03:40:42","18 SPCS","OPS 0856 DEB","1966-077AC","EARTH","TEME","UTC","SGP4","2025-05-03T06:03:29.760192","8.77699079","0.08002563","89.6590","216.2132","30.8413","356.9154","0","U","27724","999","11502","-1.27955210000000","-0.00004304","0.0000000000000","9927.458","164.065","4343.775","2754.872","DEBRIS","MEDIUM","US","1966-08-19","AFWTR","","5257616","330953919","0 OPS 0856 DEB","1 27724U 66077AC  25123.25242778 -.00004304  00000-0 -12796+1 0  9996","2 27724  89.6590 216.2132 0800256  30.8413 356.9154  8.77699079115022"
"3.0","GENERATED VIA SPACE-TRACK.ORG API","2025-05-03T17:28:03","18 SPCS","COSMOS 2251 DEB","1993-036BNT","EARTH","TEME","UTC","SGP4","2025-05-03T11:43:11.852832","15.78748733","0.00093180","73.9669","275.4695","323.0804","36.9781","0","U","37538","999","79957","0.01117700000000","0.02246990","0.0000000000000","6712.122","91.211","340.241","327.732","DEBRIS","SMALL","CIS","1993-06-16","PKMTR","2025-05-09","4717971","286759197","0 COSMOS 2251 DEB","1 37538U 93036BNT 25123.48833163  .02246990  00000-0  11177-1 0  9996","2 37538  73.9669 275.4695 0009318 323.0804  36.9781 15.78748733799571"
"3.0","GENERATED VIA SPACE-TRACK.ORG API","2025-05-04T02:26:54","18 SPCS","TIANYI 33","2023-193A","EARTH","TEME","UTC","SGP4","2025-05-03T13:03:54.104544","16.39165138","0.00092760","97.1945","148.2762","232.7827","127.2627","0","U","58553","999","7966","0.00153620000000","0.17407261","0.0000025083000","6546.161","87.850","174.099","161.954","PAYLOAD","LARGE","PRC","2023-12-08","JSC","2025-05-06","4718307","286808600","0 TIANYI 33","1 58553U 23193A   25123.54437621  .17407261  25083-5  15362-2 0  9999","2 58553  97.1945 148.2762 0009276 232.7827 127.2627 16.39165138 79666"
"3.0","GENERATED VIA SPACE-TRACK.ORG API","2026-06-23T03:40:42","18 SPCS","SL-12 DEB","2010-007S","EARTH","TEME","UTC","SGP4","2025-05-03T13:28:01.926624","4.13348308","0.57019298","64.5184","64.8316","336.9489","5.2740","0","U","41700","999","16151","0.00168341100000","0.00000170","0.0000000000000","16400.524","348.374","19373.853","670.925","DEBRIS","MEDIUM","CIS","2010-03-01","TTMTR","","5257616","330960952","0 SL-12 DEB","1 41700U 10007S   25123.56113341  .00000170  00000-0  16834-2 0  9999","2 41700  64.5184  64.8316 5701930 336.9489   5.2740  4.13348308161513"
"3.0","GENERATED VIA SPACE-TRACK.ORG API","2025-05-03T22:56:49","18 SPCS","CZ-6A DEB","2024-140XR","EARTH","TEME","UTC","SGP4","2025-05-03T14:15:39.933216","15.97726649","0.00076040","89.2792","328.9616","128.5127","231.6844","0","U","61400","999","3531","0.02313200000000","0.07659988","0.1098900000000","6658.865","90.128","285.793","275.666","DEBRIS","SMALL","PRC","2024-08-06","TSC","2025-05-07","4718204","286781063","0 CZ-6A DEB","1 61400U 24140XR  25123.59421219  .07659988  10989+0  23132-1 0  9998","2 61400  89.2792 328.9616 0007604 128.5127 231.6844 15.97726649 35314"
"3.0","GENERATED VIA SPACE-TRACK.ORG API","2025-05-06T05:26:31","18 SPCS","OBJECT M","2024-039M","EARTH","TEME","UTC","SGP4","2025-05-03T19:06:51.804288","16.48757372","0.00094060","97.3990","100.4955","213.6684","146.4024","0","U","59062","999","6625","0.00024352000000","0.17653738","0.0000027301000","6520.747","87.339","148.745","136.478","UNKNOWN","SMALL","TBD","2024-02-29","VOSTO","2025-05-06","4720400","286949461","0 OBJECT M","1 59062U 24039M   25123.79643292  .17653738  27301-5  24352-3 0  9992","2 59062  97.3990 100.4955 0009406 213.6684 146.4024 16.48757372 66254"
"3.0","GENERATED VIA SPACE-TRACK.ORG API","2025-05-03T22:56:49","18 SPCS","IRIDIUM 33 DEB","1997-051DR","EARTH","TEME","UTC","SGP4","2025-05-03T20:48:04.395456","16.22881338","0.00139370","86.3019","73.2402","176.8982","183.2405","0","U","34106","999","85886","0.00541820000000","0.12971089","-0.0000014171000","6589.877","88.731","220.927","202.558","DEBRIS","SMALL","US","1997-09-14","TTMTR","2025-05-07","4718181","286781543","0 IRIDIUM 33 DEB","1 34106U 97051DR  25123.86671754  .12971089 -14171-5  54182-2 0  9992","2 34106  86.3019  73.2402 0013937 176.8982 183.2405 16.22881338858865"
"3.0","GENERATED VIA SPACE-TRACK.ORG API","2025-05-04T17:21:58","18 SPCS","CZ-6A DEB","2024-140NK","EARTH","TEME","UTC","SGP4","2025-05-03T23:48:58.315104","15.99718921","0.00162800","88.9173","316.7253","254.3920","105.5572","0","U","61093","999","3685","0.02231600000000","0.07380877","0.1497200000000","6653.335","90.016","286.032","264.368","DEBRIS","SMALL","PRC","2024-08-06","TSC","2025-05-07","4719080","286858821","0 CZ-6A DEB","1 61093U 24140NK  25123.99234161  .07380877  14972+0  22316-1 0  9995","2 61093  88.9173 316.7253 0016280 254.3920 105.5572 15.99718921 36855"
"3.0","GENERATED VIA SPACE-TRACK.ORG API","2025-05-04T17:21:58","18 SPCS","PEARL WHITE 1","2019-054C","EARTH","TEME","UTC","SGP4","2025-05-04T01:45:24.830784","16.32970350","0.00078370","44.9775","29.1411","242.3277","117.6851","0","U","44497","999","31677","0.00100010000000","0.06459266","0.0000103240000","6562.706","88.183","189.715","179.428","PAYLOAD","MEDIUM","US","2019-08-19","RLLC","2025-05-07","4719080","286849009","0 PEARL WHITE 1","1 44497U 19054C   25124.07320406  .06459266  10324-4  10001-2 0  9999","2 44497  44.9775  29.1411 0007837 242.3277 117.6851 16.32970350316775"
"3.0","GENERATED VIA SPACE-TRACK.ORG API","2025-05-04T02:06:19","18 SPCS","STARLINK-1106","2020-001K","EARTH","TEME","UTC","SGP4","2025-05-04T01:52:22.675008","16.33644178","0.00077980","52.9788","139.5526","229.7430","169.8936","0","U","44923","999","29536","0.00094775000000","0.06426966","0.0000121270000","6560.902","88.146","187.883","177.650","PAYLOAD","LARGE","US","2020-01-07","AFETR","2025-05-04","4718304","286783317","0 STARLINK-1106","1 44923U 20001K   25124.07804022  .06426966  12127-4  94775-3 0  9993","2 44923  52.9788 139.5526 0007798 229.7430 169.8936 16.33644178295362"
"3.0","GENERATED VIA SPACE-TRACK.ORG API","2025-05-06T05:26:31","18 SPCS","OBJECT L","2024-039L","EARTH","TEME","UTC","SGP4","2025-05-04T03:29:40.088832","16.42537515","0.00087710","97.3842","100.7726","219.5766","140.4895","0","U","59061","999","6630","0.00051333000000","0.11249086","0.0000026374000","6537.198","87.669","164.797","153.329","UNKNOWN","SMALL","TBD","2024-02-29","VOSTO","2025-05-06","4720399","286949462","0 OBJECT L","1 59061U 24039L   25124.14560288  .11249086  26374-5  51333-3 0  9993","2 59061  97.3842 100.7726 0008771 219.5766 140.4895 16.42537515 66303"
"3.0","GENERATED VIA SPACE-TRACK.ORG API","2025-05-04T17:21:58","18 SPCS","ASTROCAST-0202","2021-059CL","EARTH","TEME","UTC","SGP4","2025-05-04T10:53:47.509440","16.25062093","0.00121760","97.6168","296.6922","269.4750","90.5145","0","U","48961","999","21489","0.00194730000000","0.05572451","0.0000025952000","6583.980","88.612","213.862","197.829","PAYLOAD","MEDIUM","SWTZ","2021-06-30","AFETR","2025-05-08","4719080","286851240","0 ASTROCAST-0202","1 48961U 21059CL  25124.45402210  .05572451  25952-5  19473-2 0  9990","2 48961  97.6168 296.6922 0012176 269.4750  90.5145 16.25062093214895"
"3.0","GENERATED VIA SPACE-TRACK.ORG API","2025-05-05T02:11:48","18 SPCS","COSMOS 2251 DEB","1993-036QS","EARTH","TEME","UTC","SGP4","2025-05-04T19:02:49.473024","16.05674934","0.00114180","73.9905","343.1378","204.9918","155.0772","0","U","34401","999","86101","0.01160700000000","0.05865645","0.0839400000000","6636.872","89.682","266.315","251.159","DEBRIS","SMALL","CIS","1993-06-16","PKMTR","2025-05-09","4719334","286878400","0 COSMOS 2251 DEB","1 34401U 93036QS  25124.79362816  .05865645  83940-1  11607-1 0  9999","2 34401  73.9905 343.1378 0011418 204.9918 155.0772 16.05674934861012"
